start=new Date('2022-06-03T00:00:00.000Z').valueOf();
sats=[{"REV_AT_EPOCH":"11707","FILE":"3476943","SITE":"AFETR","EPHEMERIS_TYPE":"0","ELEMENT_SET_NO":"999","PERIOD":"95.593","COUNTRY_CODE":"US","MEAN_MOTION_DOT":"0.00000857","TLE_LINE1":"1 45543U 20025N   22153.44527906  .00000857  00000-0  76475-4 0  9993","INCLINATION":"53.0549","BSTAR":"0.00007647500000","GP_ID":"205142188","MEAN_MOTION":"15.06389795","NORAD_CAT_ID":"45543","TLE_LINE2":"2 45543  53.0549 164.8270 0001919  49.1400 310.9755 15.06389795117074","RA_OF_ASC_NODE":"164.8270","OBJECT_NAME":"STARLINK-1372","OBJECT_ID":"2020-025N","REF_FRAME":"TEME","MEAN_ANOMALY":"310.9755","ECCENTRICITY":"0.00019190","EPOCH":"2022-06-02T10:41:12.110784","CENTER_NAME":"EARTH","TIME_SYSTEM":"UTC","MEAN_ELEMENT_THEORY":"SGP4","ARG_OF_PERICENTER":"49.1400","OBJECT_TYPE":"PAYLOAD","DECAY_DATE":null,"MEAN_MOTION_DDOT":"0.0000000000000","APOAPSIS":"548.574","RCS_SIZE":"LARGE","LAUNCH_DATE":"2020-04-22","SEMIMAJOR_AXIS":"6925.380","CLASSIFICATION_TYPE":"U","PERIAPSIS":"545.916"},{"COUNTRY_CODE":"US","PERIOD":"95.592","MEAN_MOTION_DOT":"0.00002812","TLE_LINE1":"1 45544U 20025P   22153.72908131  .00002812  00000-0  20761-3 0  9997","INCLINATION":"53.0546","GP_ID":"205209828","BSTAR":"0.00020761000000","MEAN_MOTION":"15.06402923","REV_AT_EPOCH":"11770","FILE":"3477983","SITE":"AFETR","EPHEMERIS_TYPE":"0","ELEMENT_SET_NO":"999","TIME_SYSTEM":"UTC","MEAN_MOTION_DDOT":"0.0000000000000","DECAY_DATE":null,"OBJECT_TYPE":"PAYLOAD","ARG_OF_PERICENTER":"69.3230","MEAN_ELEMENT_THEORY":"SGP4","APOAPSIS":"548.191","LAUNCH_DATE":"2020-04-22","RCS_SIZE":"LARGE","CLASSIFICATION_TYPE":"U","SEMIMAJOR_AXIS":"6925.340","PERIAPSIS":"546.218","TLE_LINE2":"2 45544  53.0546 163.5530 0001424  69.3230 290.7911 15.06402923117701","NORAD_CAT_ID":"45544","RA_OF_ASC_NODE":"163.5530","OBJECT_NAME":"STARLINK-1373","OBJECT_ID":"2020-025P","REF_FRAME":"TEME","MEAN_ANOMALY":"290.7911","ECCENTRICITY":"0.00014240","CENTER_NAME":"EARTH","EPOCH":"2022-06-02T17:29:52.625184"},{"COUNTRY_CODE":"US","PERIOD":"95.592","MEAN_MOTION_DOT":"0.00001881","TLE_LINE1":"1 45545U 20025Q   22153.74752024  .00001881  00000-0  14519-3 0  9997","INCLINATION":"53.0535","GP_ID":"205209078","BSTAR":"0.00014519000000","MEAN_MOTION":"15.06395440","REV_AT_EPOCH":"11768","FILE":"3477983","EPHEMERIS_TYPE":"0","SITE":"AFETR","ELEMENT_SET_NO":"999","TIME_SYSTEM":"UTC","DECAY_DATE":null,"MEAN_MOTION_DDOT":"0.0000000000000","OBJECT_TYPE":"PAYLOAD","ARG_OF_PERICENTER":"51.7551","MEAN_ELEMENT_THEORY":"SGP4","APOAPSIS":"548.586","LAUNCH_DATE":"2020-04-22","CLASSIFICATION_TYPE":"U","RCS_SIZE":"LARGE","SEMIMAJOR_AXIS":"6925.363","PERIAPSIS":"545.869","TLE_LINE2":"2 45545  53.0535 163.4530 0001962  51.7551 308.3614 15.06395440117685","NORAD_CAT_ID":"45545","OBJECT_NAME":"STARLINK-1374","RA_OF_ASC_NODE":"163.4530","OBJECT_ID":"2020-025Q","REF_FRAME":"TEME","MEAN_ANOMALY":"308.3614","ECCENTRICITY":"0.00019620","CENTER_NAME":"EARTH","EPOCH":"2022-06-02T17:56:25.748736"},{"MEAN_MOTION":"15.06387330","BSTAR":"-0.00005283500000","GP_ID":"205209328","MEAN_MOTION_DOT":"-0.00001068","COUNTRY_CODE":"US","PERIOD":"95.593","INCLINATION":"53.0556","TLE_LINE1":"1 45546U 20025R   22153.75855924 -.00001068  00000-0 -52835-4 0  9995","EPHEMERIS_TYPE":"0","SITE":"AFETR","FILE":"3477983","ELEMENT_SET_NO":"999","REV_AT_EPOCH":"11770","LAUNCH_DATE":"2020-04-22","RCS_SIZE":"LARGE","SEMIMAJOR_AXIS":"6925.387","CLASSIFICATION_TYPE":"U","APOAPSIS":"548.239","PERIAPSIS":"546.266","TIME_SYSTEM":"UTC","MEAN_MOTION_DDOT":"0.0000000000000","DECAY_DATE":null,"OBJECT_TYPE":"PAYLOAD","MEAN_ELEMENT_THEORY":"SGP4","ARG_OF_PERICENTER":"65.2450","ECCENTRICITY":"0.00014240","MEAN_ANOMALY":"294.8687","CENTER_NAME":"EARTH","EPOCH":"2022-06-02T18:12:19.518336","TLE_LINE2":"2 45546  53.0556 163.4138 0001424  65.2450 294.8687 15.06387330117705","NORAD_CAT_ID":"45546","OBJECT_ID":"2020-025R","REF_FRAME":"TEME","RA_OF_ASC_NODE":"163.4138","OBJECT_NAME":"STARLINK-1375"},{"EPHEMERIS_TYPE":"0","SITE":"AFETR","FILE":"3477983","ELEMENT_SET_NO":"999","REV_AT_EPOCH":"11771","MEAN_MOTION":"15.06402779","GP_ID":"205210080","BSTAR":"0.00016917000000","MEAN_MOTION_DOT":"0.00002239","PERIOD":"95.592","COUNTRY_CODE":"US","INCLINATION":"53.0553","TLE_LINE1":"1 45547U 20025S   22153.75487780  .00002239  00000-0  16917-3 0  9996","ECCENTRICITY":"0.00016320","MEAN_ANOMALY":"298.3145","EPOCH":"2022-06-02T18:07:01.441920","CENTER_NAME":"EARTH","NORAD_CAT_ID":"45547","TLE_LINE2":"2 45547  53.0553 163.4297 0001632  61.8009 298.3145 15.06402779117716","REF_FRAME":"TEME","OBJECT_ID":"2020-025S","OBJECT_NAME":"STARLINK-1377","RA_OF_ASC_NODE":"163.4297","LAUNCH_DATE":"2020-04-22","RCS_SIZE":"LARGE","SEMIMAJOR_AXIS":"6925.340","CLASSIFICATION_TYPE":"U","APOAPSIS":"548.335","PERIAPSIS":"546.075","TIME_SYSTEM":"UTC","ARG_OF_PERICENTER":"61.8009","MEAN_ELEMENT_THEORY":"SGP4","DECAY_DATE":null,"OBJECT_TYPE":"PAYLOAD","MEAN_MOTION_DDOT":"0.0000000000000"},{"PERIAPSIS":"546.053","RCS_SIZE":"LARGE","LAUNCH_DATE":"2020-04-22","SEMIMAJOR_AXIS":"6925.357","CLASSIFICATION_TYPE":"U","APOAPSIS":"548.391","ARG_OF_PERICENTER":"56.9679","MEAN_ELEMENT_THEORY":"SGP4","MEAN_MOTION_DDOT":"0.0000000000000","DECAY_DATE":null,"OBJECT_TYPE":"PAYLOAD","TIME_SYSTEM":"UTC","EPOCH":"2022-06-02T10:46:28.377984","CENTER_NAME":"EARTH","MEAN_ANOMALY":"303.1472","ECCENTRICITY":"0.00016880","OBJECT_ID":"2020-025T","REF_FRAME":"TEME","OBJECT_NAME":"STARLINK-1378","RA_OF_ASC_NODE":"164.8144","NORAD_CAT_ID":"45548","TLE_LINE2":"2 45548  53.0542 164.8144 0001688  56.9679 303.1472 15.06397108117076","MEAN_MOTION":"15.06397108","GP_ID":"205143454","BSTAR":"0.00007011800000","INCLINATION":"53.0542","TLE_LINE1":"1 45548U 20025T   22153.44893956  .00000763  00000-0  70118-4 0  9993","MEAN_MOTION_DOT":"0.00000763","PERIOD":"95.592","COUNTRY_CODE":"US","ELEMENT_SET_NO":"999","EPHEMERIS_TYPE":"0","SITE":"AFETR","FILE":"3476976","REV_AT_EPOCH":"11707"},{"TLE_LINE2":"2 45550  53.0522 163.5376 0001706  60.7492 299.3667 15.06400427117696","NORAD_CAT_ID":"45550","OBJECT_NAME":"STARLINK-1390","RA_OF_ASC_NODE":"163.5376","REF_FRAME":"TEME","OBJECT_ID":"2020-025V","ECCENTRICITY":"0.00017060","MEAN_ANOMALY":"299.3667","EPOCH":"2022-06-02T17:33:48.020256","CENTER_NAME":"EARTH","TIME_SYSTEM":"UTC","ARG_OF_PERICENTER":"60.7492","MEAN_ELEMENT_THEORY":"SGP4","OBJECT_TYPE":"PAYLOAD","DECAY_DATE":null,"MEAN_MOTION_DDOT":"0.0000000000000","APOAPSIS":"548.394","RCS_SIZE":"LARGE","LAUNCH_DATE":"2020-04-22","SEMIMAJOR_AXIS":"6925.347","CLASSIFICATION_TYPE":"U","PERIAPSIS":"546.031","REV_AT_EPOCH":"11769","FILE":"3477983","EPHEMERIS_TYPE":"0","SITE":"AFETR","ELEMENT_SET_NO":"999","PERIOD":"95.592","COUNTRY_CODE":"US","MEAN_MOTION_DOT":"0.00001271","TLE_LINE1":"1 45550U 20025V   22153.73180579  .00001271  00000-0  10424-3 0  9996","INCLINATION":"53.0522","BSTAR":"0.00010424000000","GP_ID":"205208578","MEAN_MOTION":"15.06400427"},{"ELEMENT_SET_NO":"999","EPHEMERIS_TYPE":"0","SITE":"AFETR","FILE":"3477983","REV_AT_EPOCH":"11797","MEAN_MOTION":"15.06399731","BSTAR":"0.00007441200000","GP_ID":"205208828","INCLINATION":"53.0550","TLE_LINE1":"1 45551U 20025W   22153.66824458  .00000827  00000-0  74412-4 0  9994","MEAN_MOTION_DOT":"0.00000827","COUNTRY_CODE":"US","PERIOD":"95.592","CENTER_NAME":"EARTH","EPOCH":"2022-06-02T16:02:16.331712","MEAN_ANOMALY":"308.1577","ECCENTRICITY":"0.00018200","OBJECT_ID":"2020-025W","REF_FRAME":"TEME","OBJECT_NAME":"STARLINK-1294","RA_OF_ASC_NODE":"143.8095","TLE_LINE2":"2 45551  53.0550 143.8095 0001820  51.9576 308.1577 15.06399731117974","NORAD_CAT_ID":"45551","PERIAPSIS":"545.954","LAUNCH_DATE":"2020-04-22","SEMIMAJOR_AXIS":"6925.349","RCS_SIZE":"LARGE","CLASSIFICATION_TYPE":"U","APOAPSIS":"548.475","MEAN_MOTION_DDOT":"0.0000000000000","DECAY_DATE":null,"OBJECT_TYPE":"PAYLOAD","ARG_OF_PERICENTER":"51.9576","MEAN_ELEMENT_THEORY":"SGP4","TIME_SYSTEM":"UTC"},{"REV_AT_EPOCH":"11879","ELEMENT_SET_NO":"999","EPHEMERIS_TYPE":"0","SITE":"AFETR","FILE":"3477482","INCLINATION":"53.0443","TLE_LINE1":"1 45552U 20025X   22153.20017629  .00136971  00000-0  14779-2 0  9997","MEAN_MOTION_DOT":"0.00136971","COUNTRY_CODE":"US","PERIOD":"92.150","MEAN_MOTION":"15.62673446","GP_ID":"205174249","BSTAR":"0.00147790000000","REF_FRAME":"TEME","OBJECT_ID":"2020-025X","RA_OF_ASC_NODE":"82.4220","OBJECT_NAME":"STARLINK-1322","TLE_LINE2":"2 45552  53.0443  82.4220 0010354 109.5832 250.6300 15.62673446118797","NORAD_CAT_ID":"45552","CENTER_NAME":"EARTH","EPOCH":"2022-06-02T04:48:15.231456","MEAN_ANOMALY":"250.6300","ECCENTRICITY":"0.00103540","DECAY_DATE":null,"MEAN_MOTION_DDOT":"0.0000000000000","OBJECT_TYPE":"PAYLOAD","ARG_OF_PERICENTER":"109.5832","MEAN_ELEMENT_THEORY":"SGP4","TIME_SYSTEM":"UTC","PERIAPSIS":"372.943","SEMIMAJOR_AXIS":"6758.075","LAUNCH_DATE":"2020-04-22","RCS_SIZE":"LARGE","CLASSIFICATION_TYPE":"U","APOAPSIS":"386.938"},{"NORAD_CAT_ID":"45553","TLE_LINE2":"2 45553  53.0526 143.7612 0001941  54.7893 305.3277 15.06391309116686","OBJECT_ID":"2020-025Y","REF_FRAME":"TEME","OBJECT_NAME":"STARLINK-1323","RA_OF_ASC_NODE":"143.7612","ECCENTRICITY":"0.00019410","MEAN_ANOMALY":"305.3277","EPOCH":"2022-06-02T16:18:12.435840","CENTER_NAME":"EARTH","TIME_SYSTEM":"UTC","ARG_OF_PERICENTER":"54.7893","MEAN_ELEMENT_THEORY":"SGP4","DECAY_DATE":null,"MEAN_MOTION_DDOT":"0.0000000000000","OBJECT_TYPE":"PAYLOAD","SEMIMAJOR_AXIS":"6925.375","LAUNCH_DATE":"2020-04-22","RCS_SIZE":"LARGE","CLASSIFICATION_TYPE":"U","APOAPSIS":"548.584","PERIAPSIS":"545.896","REV_AT_EPOCH":"11668","SITE":"AFETR","EPHEMERIS_TYPE":"0","FILE":"3477983","ELEMENT_SET_NO":"999","MEAN_MOTION_DOT":"-0.00000676","PERIOD":"95.593","COUNTRY_CODE":"US","INCLINATION":"53.0526","TLE_LINE1":"1 45553U 20025Y   22153.67931060 -.00000676  00000-0 -26504-4 0  9998","MEAN_MOTION":"15.06391309","BSTAR":"-0.00002650400000","GP_ID":"205209829"}];
